[{"OBJECT_NAME":"HORS 5","OBJECT_ID":"2025-313AM","EPOCH":"2026-03-09T21:29:36.364128","MEAN_MOTION":15.22460599,"ECCENTRICITY":0.00102591,"INCLINATION":97.4003,"RA_OF_ASC_NODE":145.2415,"ARG_OF_PERICENTER":355.2078,"MEAN_ANOMALY":4.9058,"EPHEMERIS_TYPE":0,"CLASSIFICATION_TYPE":"U","NORAD_CAT_ID":67283,"ELEMENT_SET_NO":999,"REV_AT_EPOCH":1085,"BSTAR":0.0004492473,"MEAN_MOTION_DOT":0.00010348,"MEAN_MOTION_DDOT":0},{"OBJECT_NAME":"CZ-6A DEB","OBJECT_ID":"2022-151AAA","EPOCH":"2026-03-09T04:57:45.021312","MEAN_MOTION":15.12096834,"ECCENTRICITY":0.00549442,"INCLINATION":98.6194,"RA_OF_ASC_NODE":161.6622,"ARG_OF_PERICENTER":147.3471,"MEAN_ANOMALY":213.1173,"EPHEMERIS_TYPE":0,"CLASSIFICATION_TYPE":"U","NORAD_CAT_ID":55878,"ELEMENT_SET_NO":999,"REV_AT_EPOCH":16515,"BSTAR":0.0054624845,"MEAN_MOTION_DOT":0.00098665,"MEAN_MOTION_DDOT":0}]
